NORAD_CAT_ID,OBJECT_NAME,OBJECT_TYPE,EPOCH,MEAN_MOTION,ECCENTRICITY,INCLINATION,RA_OF_ASC_NODE,ARG_OF_PERICENTER,MEAN_ANOMALY,BSTAR,MEAN_MOTION_DOT,MEAN_MOTION_DDOT,TLE_LINE0,TLE_LINE1,TLE_LINE2,SEMIMAJOR_AXIS,PERIOD,APOGEE,PERIGEE,DECAYED
52880.0,STARLINK-4186,PAYLOAD,2023-01-14 14:13:08,15.08838019,0.0002483,53.2159,137.1121,73.8557,286.2708,3.1687e-05,2.16e-06,0.0,0 STARLINK-4186,1 52880U 22062BC  23014.59246367  .00000216  00000-0  31687-4 0  9995,2 52880  53.2159 137.1121 0002483  73.8557 286.2708 15.08838019 32931,6917.886,95.438,541.469,538.034,0.0
52880.0,STARLINK-4186,PAYLOAD,2023-01-15 14:03:56,15.08838903,0.0002026,53.2168,132.6524,75.2415,284.8802,6.0651000000000006e-05,6.77e-06,0.0,0 STARLINK-4186,1 52880U 22062BC  23015.58606554  .00000677  00000-0  60651-4 0  9997,2 52880  53.2168 132.6524 0002026  75.2415 284.8802 15.08838903 32593,6917.884,95.438,541.15,538.347,0.0
52880.0,STARLINK-4186,PAYLOAD,2023-01-15 17:14:41,15.08845377,0.0002000999999999,53.2173,132.0518,85.0855,275.0366,0.00015738,2.218e-05,0.0,0 STARLINK-4186,1 52880U 22062BC  23015.71854100  .00002218  00000-0  15738-3 0  9992,2 52880  53.2173 132.0518 0002001  85.0855 275.0366 15.08845377 33104,6917.8640000000005,95.437,541.113,538.345,0.0
52880.0,STARLINK-4186,PAYLOAD,2023-01-16 13:54:41,15.08863181,0.0002038,53.2169,128.1899,84.1092,276.0132,0.00038887,5.91e-05,0.0,0 STARLINK-4186,1 52880U 22062BC  23016.57964915  .00005910  00000-0  38887-3 0  9995,2 52880  53.2169 128.1899 0002038  84.1092 276.0132 15.08863181 33239,6917.81,95.436,541.0840000000001,538.265,0.0
52880.0,STARLINK-4186,PAYLOAD,2023-01-17 04:13:12,15.08808448,0.0002091,53.2173,125.5112,114.6009,245.5201,-0.00050468,-8.304e-05,0.0,0 STARLINK-4186,1 52880U 22062BC  23017.17583516 -.00008304  00000-0 -50468-3 0  9997,2 52880  53.2173 125.5112 0002091 114.6009 245.5201 15.08808448 33322,6917.977,95.44,541.288,538.395,0.0
52880.0,STARLINK-4186,PAYLOAD,2023-01-17 13:45:31,15.08806746,0.0001718,53.2171,123.7298,98.5706,261.5481,-0.00031013,-5.216e-05,0.0,0 STARLINK-4186,1 52880U 22062BC  23017.57328326 -.00005216  00000-0 -31013-3 0  9991,2 52880  53.2171 123.7298 0001718  98.5706 261.5481 15.08806746 32892,6917.982,95.44,541.036,538.659,0.0
52880.0,STARLINK-4186,PAYLOAD,2023-01-18 08:50:08,15.08848878,0.0001581,53.2178,120.1615,102.06,258.0569,0.00023629,3.475e-05,0.0,0 STARLINK-4186,1 52880U 22062BC  23018.36814833  .00003475  00000-0  23629-3 0  9999,2 52880  53.2178 120.1615 0001581 102.0600 258.0569 15.08848878 33504,6917.853,95.437,540.812,538.625,0.0
52880.0,STARLINK-4186,PAYLOAD,2023-01-18 13:36:17,15.08861963,0.0001656,53.2176,119.2687,94.48,265.6382,0.00071834,0.0001117,0.0,0 STARLINK-4186,1 52880U 22062BC  23018.56686702  .00011170  00000-0  71834-3 0  9995,2 52880  53.2176 119.2687 0001656  94.4800 265.6382 15.08861963 33045,6917.813,95.436,540.8240000000001,538.533,0.0
52880.0,STARLINK-4186,PAYLOAD,2023-01-19 05:30:09,15.08822869,0.0001689,53.2172,116.2957,98.1818,261.9365,0.00012034,1.627e-05,0.0,0 STARLINK-4186,1 52880U 22062BC  23019.22928049  .00001627  00000-0  12034-3 0  9995,2 52880  53.2172 116.2957 0001689  98.1818 261.9365 15.08822869 33631,6917.933000000001,95.439,540.966,538.629,0.0
52880.0,STARLINK-4186,PAYLOAD,2023-01-19 08:40:55,15.08832596,0.0001905,53.2165,115.7017,94.0339,266.0871,0.0002314,3.396e-05,0.0,0 STARLINK-4186,1 52880U 22062BC  23019.36175796  .00003396  00000-0  23140-3 0  9998,2 52880  53.2165 115.7017 0001905  94.0339 266.0871 15.08832596 33656,6917.903,95.438,541.086,538.45,0.0
52880.0,STARLINK-4186,PAYLOAD,2023-01-19 10:16:18,15.0883689,0.0001801,53.2165,115.4049,89.229,270.8908,0.00028871,4.309e-05,0.0,0 STARLINK-4186,1 52880U 22062BC  23019.42799706  .00004309  00000-0  28871-3 0  9999,2 52880  53.2165 115.4049 0001801  89.2290 270.8908 15.08836890 33177,6917.89,95.438,541.001,538.509,0.0
52880.0,STARLINK-4186,PAYLOAD,2023-01-19 11:51:41,15.08844302,0.0001753,53.2165,115.1073,92.4667,267.6525,0.00019376,2.797e-05,0.0,0 STARLINK-4186,1 52880U 22062BC  23019.49423319  .00002797  00000-0  19376-3 0  9999,2 52880  53.2165 115.1073 0001753  92.4667 267.6525 15.08844302 33672,6917.866999999999,95.437,540.945,538.52,0.0
52880.0,STARLINK-4186,PAYLOAD,2023-01-20 11:42:28,15.088512699999995,0.0001754,53.2165,110.6477,87.9954,272.1239,0.00018794,2.705e-05,0.0,0 STARLINK-4186,1 52880U 22062BC  23020.48782769  .00002705  00000-0  18794-3 0  9999,2 52880  53.2165 110.6477 0001754  87.9954 272.1239 15.08851270 33337,6917.846,95.437,540.924,538.498,0.0
52880.0,STARLINK-4186,PAYLOAD,2023-01-20 14:53:14,15.08862774,0.0001774999999999,53.2164,110.053,94.9523,265.1672,0.00089187,0.00013943,0.0,0 STARLINK-4186,1 52880U 22062BC  23020.62030565  .00013943  00000-0  89187-3 0  9995,2 52880  53.2164 110.0530 0001775  94.9523 265.1672 15.08862774 33843,6917.811,95.436,540.904,538.448,0.0
52880.0,STARLINK-4186,PAYLOAD,2023-01-21 05:11:43,15.08842455,0.0001460999999999,53.2164,107.3763,92.6249,267.4911,0.00040509,6.165e-05,0.0,0 STARLINK-4186,1 52880U 22062BC  23021.21647012  .00006165  00000-0  40509-3 0  9995,2 52880  53.2164 107.3763 0001461  92.6249 267.4911 15.08842455 33937,6917.8730000000005,95.437,540.749,538.727,0.0
52880.0,STARLINK-4186,PAYLOAD,2023-01-22 05:02:30,15.08858231,0.0001458,53.2163,102.9165,91.7101,268.4059,0.0019914999999999,0.00031565,0.0,0 STARLINK-4186,1 52880U 22062BC  23022.21007413  .00031565  00000-0  19915-2 0  9999,2 52880  53.2163 102.9165 0001458  91.7101 268.4059 15.08858231 34086,6917.825,95.436,540.698,538.681,0.0
52880.0,STARLINK-4186,PAYLOAD,2023-01-22 12:59:25,15.0885715,0.0001484,53.2166,101.429,83.6244,276.4917,0.0013103,0.00020637,0.0,0 STARLINK-4186,1 52880U 22062BC  23022.54127240  .00020637  00000-0  13103-2 0  9997,2 52880  53.2166 101.4290 0001484  83.6244 276.4917 15.08857150 34136,6917.828,95.436,540.72,538.6659999999999,0.0
52880.0,STARLINK-4186,PAYLOAD,2023-01-23 04:53:17,15.08844578,0.0001349,53.216,98.4557,87.3869,272.7277,0.00066229,0.00010269,0.0,0 STARLINK-4186,1 52880U 22062BC  23023.20367389  .00010269  00000-0  66229-3 0  9999,2 52880  53.2160  98.4557 0001349  87.3869 272.7277 15.08844578 34234,6917.866,95.437,540.665,538.798,0.0
52880.0,STARLINK-4186,PAYLOAD,2023-01-24 04:44:04,15.08837178,0.0001227,53.216,93.997,86.76899999999999,273.3443,0.00024774,3.657e-05,0.0,0 STARLINK-4186,1 52880U 22062BC  23024.19727630  .00003657  00000-0  24774-3 0  9999,2 52880  53.2160  93.9970 0001227  86.7690 273.3443 15.08837178 34389,6917.889,95.438,540.6030000000001,538.905,0.0
52880.0,STARLINK-4186,PAYLOAD,2023-01-25 10:56:24,15.08839699,0.0001199,53.2172,88.3455,101.9468,258.1658,8.265e-05,1.028e-05,0.0,0 STARLINK-4186,1 52880U 22062BC  23025.45583800  .00001028  00000-0  82650-4 0  9996,2 52880  53.2172  88.3455 0001199 101.9468 258.1658 15.08839699 34579,6917.880999999999,95.438,540.576,538.9169999999999,0.0
52880.0,STARLINK-4186,PAYLOAD,2023-01-26 09:11:48,15.088452900000002,0.0001228,53.2172,84.1827,105.4484,254.6644,0.0001464,2.043e-05,0.0,0 STARLINK-4186,1 52880U 22062BC  23026.38319565  .00002043  00000-0  14640-3 0  9995,2 52880  53.2172  84.1827 0001228 105.4484 254.6644 15.08845290 34228,6917.8640000000005,95.437,540.5790000000001,538.88,0.0
52880.0,STARLINK-4186,PAYLOAD,2023-01-26 20:19:30,15.08841345,0.0001248,53.217,82.1007,114.431,245.6813,0.0001395999999999,1.935e-05,0.0,0 STARLINK-4186,1 52880U 22062BC  23026.84687682  .00001935  00000-0  13960-3 0  9997,2 52880  53.2170  82.1007 0001248 114.4310 245.6813 15.08841345 34780,6917.876,95.437,540.605,538.878,0.0
52880.0,STARLINK-4186,PAYLOAD,2023-01-27 12:13:22,15.088354,0.0001373,53.2196,79.1287,115.5372,244.5762,8.266700000000001e-05,1.028e-05,0.0,0 STARLINK-4186,1 52880U 22062BC  23027.50928291  .00001028  00000-0  82667-4 0  9999,2 52880  53.2196  79.1287 0001373 115.5372 244.5762 15.08835400 34880,6917.894,95.438,540.7090000000001,538.81,0.0
52880.0,STARLINK-4186,PAYLOAD,2023-01-27 20:10:17,15.08841221,0.0001185,53.2182,77.6405,101.3739,258.7387,7.177e-05,8.55e-06,0.0,0 STARLINK-4186,1 52880U 22062BC  23027.84047945  .00000855  00000-0  71770-4 0  9994,2 52880  53.2182  77.6405 0001185 101.3739 258.7387 15.08841221 34441,6917.877,95.437,540.561,538.922,0.0
52880.0,STARLINK-4186,PAYLOAD,2023-01-28 12:04:09,15.08835875,0.0001262,53.2189,74.6669,94.7951,265.3186,2.9084e-05,1.75e-06,0.0,0 STARLINK-4186,1 52880U 22062BC  23028.50288510  .00000175  00000-0  29084-4 0  9999,2 52880  53.2189  74.6669 0001262  94.7951 265.3186 15.08835875 34544,6917.893,95.438,540.631,538.885,0.0
52880.0,STARLINK-4186,PAYLOAD,2023-01-28 20:01:04,15.08838423,0.0001322,53.219,73.1796,100.3493,259.7648,4.9171e-05,4.95e-06,0.0,0 STARLINK-4186,1 52880U 22062BC  23028.83408271  .00000495  00000-0  49171-4 0  9997,2 52880  53.2190  73.1796 0001322 100.3493 259.7648 15.08838423 35085,6917.885,95.438,540.665,538.836,0.0
52880.0,STARLINK-4186,PAYLOAD,2023-01-29 19:51:51,15.08840279,0.0001447,53.2184,68.719,85.8711,274.2447,5.9332e-05,6.56e-06,0.0,0 STARLINK-4186,1 52880U 22062BC  23029.82768303  .00000656  00000-0  59332-4 0  9991,2 52880  53.2184  68.7190 0001447  85.8711 274.2447 15.08840279 34747,6917.88,95.438,540.746,538.744,0.0
52880.0,STARLINK-4186,PAYLOAD,2023-01-30 06:59:33,15.08835721,0.0001313,53.2181,66.6369,89.5182,270.5961,9.718e-05,1.259e-05,0.0,0 STARLINK-4186,1 52880U 22062BC  23030.29136550  .00001259  00000-0  97180-4 0  9990,2 52880  53.2181  66.6369 0001313  89.5182 270.5961 15.08835721 35303,6917.893,95.438,540.667,538.85,0.0
52880.0,STARLINK-4186,PAYLOAD,2023-01-30 11:45:43,15.08841482,0.0001239,53.2175,65.7441,91.3863,268.7271,6.4799e-05,7.44e-06,0.0,0 STARLINK-4186,1 52880U 22062BC  23030.49008218  .00000744  00000-0  64799-4 0  9999,2 52880  53.2175  65.7441 0001239  91.3863 268.7271 15.08841482 34843,6917.876,95.437,540.598,538.884,0.0
